STARLINK-37601          
1 69450U 26127H   26198.94171735 -.00781544  00000+0 -58510-2 0  9996
2 69450  53.1576 109.4608 0000610 142.2732 217.8331 15.74172759  6255
STARLINK-37578          
1 69451U 26127J   26197.02457828  .00154273  00000+0  98906-3 0  9990
2 69451  53.1570 118.8267 0001724 109.0231 251.0977 15.75313951  5951
STARLINK-37577          
1 69452U 26127K   26198.91668981 -.01389621  00000+0 -24092-1 0  9997
2 69452  53.1595 109.6066 0001115 107.2610  96.4524 15.53325019  5974
STARLINK-37500          
1 69453U 26127L   26198.91668981 -.02061985  00000+0 -19154-1 0  9992
2 69453  53.1586 109.3922 0001225 131.8139 178.2085 15.69990292  5973
STARLINK-37575          
1 69454U 26127M   26198.91668981 -.02159691  00000+0 -36545-1 0  9998
2 69454  53.1596 109.5371 0001417 100.2778 137.4313 15.54360860  5974
STARLINK-37642          
1 69455U 26127N   26198.91668981 -.02129617  00000+0 -19271-1 0  9991
2 69455  53.1583 109.4397 0001209 119.5178 167.0088 15.70720724  6026
STARLINK-37513          
1 69456U 26127P   26198.30968355 -.00422548  00000+0 -43754-2 0  9994
2 69456  53.1602 111.8888 0001208 170.7202 189.3836 15.65365991  6165
STARLINK-37563          
1 69457U 26127Q   26198.91668981 -.01971123  00000+0 -35029-1 0  9998
2 69457  53.1598 109.6449 0001270  80.7158 103.4204 15.52722653  5979
STARLINK-37565          
1 69458U 26127R   26198.91668981 -.02007476  00000+0 -28874-1 0  9991
2 69458  53.1595 109.3734 0001244 125.6256 192.1465 15.59005000  6028
STARLINK-37498          
1 69459U 26127S   26198.91668981 -.02016879  00000+0 -21738-1 0  9991
2 69459  53.1588 109.4255 0000806  92.8251 200.1863 15.66329161  5928
STARLINK-37384          
1 69460U 26127T   26198.90991545 -.00545084  00000+0 -39397-2 0  9991
2 69460  53.1582 109.2472 0001166 359.4937   0.6081 15.74326820  6256
STARLINK-37707          
1 69461U 26127U   26198.91668981 -.02194893  00000+0 -36162-1 0  9994
2 69461  53.1594 109.4621 0001229 116.1144 157.2519 15.55140206  5868
STARLINK-37525          
1 69462U 26127V   26198.91668981 -.01248304  00000+0 -14923-1 0  9992
2 69462  53.1595 109.2235 0000603  98.5061 292.4753 15.63261469  5861
STARLINK-37526          
1 69463U 26127W   26198.91668981 -.01981452  00000+0 -30460-1 0  9995
2 69463  53.1594 109.3777 0000720 113.9358 200.0879 15.57214164  6031
STARLINK-37574          
1 69464U 26127X   26198.91668981 -.02374846  00000+0 -43764-1 0  9991
2 69464  53.1594 109.5178 0000990 135.2526 109.6307 15.52397371  5814
STARLINK-37535          
1 69465U 26127Y   26198.91668981 -.02126973  00000+0 -29706-1 0  9998
2 69465  53.1596 109.2638 0000721 112.4089 257.7545 15.59412786  6037
STARLINK-37583          
1 69466U 26127Z   26198.91668981 -.01292895  00000+0 -16024-1 0  9994
2 69466  53.1596 108.8860 0001015  93.6269 100.3867 15.62448851  6044
STARLINK-37546          
1 69467U 26127AA  26198.91668981 -.00684736  00000+0 -99258-2 0  9994
2 69467  53.1593 109.2523 0001016 115.2087 259.1369 15.57559313  6054
STARLINK-37532          
1 69468U 26127AB  26198.91668981 -.01093104  00000+0 -21154-1 0  9998
2 69468  53.1593 109.1352 0001396 124.8279 305.0375 15.50049101  5996
STARLINK-37708          
1 69469U 26127AC  26198.91668981 -.02214903  00000+0 -38232-1 0  9997
2 69469  53.1594 109.3324 0000924 107.0291 227.8454 15.53916108  6041
STARLINK-37686          
1 69470U 26127AD  26198.91668981 -.02071460  00000+0 -36760-1 0  9992
2 69470  53.1591 109.3191 0001217 122.0721 217.6908 15.52924344  5931
STARLINK-37451          
1 69471U 26127AE  26198.91668981 -.00004629  00000+0 -75243-4 0  9996
2 69471  53.1598 108.5639 0001364 105.9976 242.7846 15.49295251  6050
DTC TEST OBJECT A       
1 69472U 26128A   26194.39389829  .00005883  00000+0  98125-4 0  9992
2 69472  54.9999 184.1420 0011626   6.4285 353.6897 15.53518270  5302
DTC TEST OBJECT B       
1 69473U 26128B   26178.37654890  .00024134  00000+0  33565-3 0  9992
2 69473  55.0021 257.9040 0009934 325.3113  34.7274 15.56860342  2801
TJS-25                  
1 69474U 26129A   26198.86194953 -.00000377  00000+0  00000+0 0  9997
2 69474   5.9494 330.3562 0002811 280.6095 115.1941  1.00270395   376
STARLINK-37816          
1 69478U 26131A   26198.48666770  .00019348  00000+0  35633-3 0  9994
2 69478  97.2838 220.1177 0001340  91.8280 268.3125 15.49206034  6927
STARLINK-37878          
1 69479U 26131B   26198.01229295  .00024924  00000+0  45822-3 0  9998
2 69479  97.2844 219.6912 0000650 123.1257 237.0057 15.49206073  6853
STARLINK-37817          
1 69480U 26131C   26198.91668981 -.02069414  00000+0 -52060-1 0  9995
2 69480  97.2848 220.6248 0001868  79.9502 312.7079 15.43485225  6011
STARLINK-37727          
1 69481U 26131D   26198.03373536  .00026713  00000+0  49078-3 0  9996
2 69481  97.2835 219.6620 0002027 100.8179 259.3301 15.49209433  6859
STARLINK-37814          
1 69482U 26131E   26198.71687861 -.00549365  00000+0 -11157-1 0  9991
2 69482  97.2815 220.4178 0002731 140.8222 219.3227 15.48307954  6962
