OBJECT_NAME,OBJECT_ID,EPOCH,MEAN_MOTION,ECCENTRICITY,INCLINATION,RA_OF_ASC_NODE,ARG_OF_PERICENTER,MEAN_ANOMALY,EPHEMERIS_TYPE,CLASSIFICATION_TYPE,NORAD_CAT_ID,ELEMENT_SET_NO,REV_AT_EPOCH,BSTAR,MEAN_MOTION_DOT,MEAN_MOTION_DDOT
STARLINK-37601,2026-127H,2026-07-17T22:36:04.379040,15.74172759,.00006101,53.1576,109.4608,142.2732,217.8331,0,U,69450,999,625,-.58510307E-2,-.781544E-2,0
STARLINK-37578,2026-127J,2026-07-16T00:35:23.563392,15.75313951,.00017249,53.1570,118.8267,109.0231,251.0977,0,U,69451,999,595,.98905546E-3,.154273E-2,0
STARLINK-37577,2026-127K,2026-07-17T22:00:01.999584,15.53325019,.00011157,53.1595,109.6066,107.2610,96.4524,0,U,69452,999,597,-.24091785E-1,-.1389621E-1,0
STARLINK-37500,2026-127L,2026-07-17T22:00:01.999584,15.69990292,.00012255,53.1586,109.3922,131.8139,178.2085,0,U,69453,999,597,-.19153853E-1,-.2061985E-1,0
STARLINK-37575,2026-127M,2026-07-17T22:00:01.999584,15.54360860,.00014177,53.1596,109.5371,100.2778,137.4313,0,U,69454,999,597,-.36545214E-1,-.2159691E-1,0
STARLINK-37642,2026-127N,2026-07-17T22:00:01.999584,15.70720724,.00012097,53.1583,109.4397,119.5178,167.0088,0,U,69455,999,602,-.19271053E-1,-.2129617E-1,0
STARLINK-37513,2026-127P,2026-07-17T07:25:56.658720,15.65365991,.00012088,53.1602,111.8888,170.7202,189.3836,0,U,69456,999,616,-.4375445E-2,-.422548E-2,0
STARLINK-37563,2026-127Q,2026-07-17T22:00:01.999584,15.52722653,.00012707,53.1598,109.6449,80.7158,103.4204,0,U,69457,999,597,-.35029176E-1,-.1971123E-1,0
STARLINK-37565,2026-127R,2026-07-17T22:00:01.999584,15.59005000,.00012447,53.1595,109.3734,125.6256,192.1465,0,U,69458,999,602,-.28873705E-1,-.2007476E-1,0
STARLINK-37498,2026-127S,2026-07-17T22:00:01.999584,15.66329161,.00008069,53.1588,109.4255,92.8251,200.1863,0,U,69459,999,592,-.21737547E-1,-.2016879E-1,0
STARLINK-37384,2026-127T,2026-07-17T21:50:16.694880,15.74326820,.00011669,53.1582,109.2472,359.4937,0.6081,0,U,69460,999,625,-.39397491E-2,-.545084E-2,0
STARLINK-37707,2026-127U,2026-07-17T22:00:01.999584,15.55140206,.00012293,53.1594,109.4621,116.1144,157.2519,0,U,69461,999,586,-.36162425E-1,-.2194893E-1,0
STARLINK-37525,2026-127V,2026-07-17T22:00:01.999584,15.63261469,.0000603,53.1595,109.2235,98.5061,292.4753,0,U,69462,999,586,-.14923014E-1,-.1248304E-1,0
STARLINK-37526,2026-127W,2026-07-17T22:00:01.999584,15.57214164,.00007208,53.1594,109.3777,113.9358,200.0879,0,U,69463,999,603,-.30459568E-1,-.1981452E-1,0
STARLINK-37574,2026-127X,2026-07-17T22:00:01.999584,15.52397371,.00009904,53.1594,109.5178,135.2526,109.6307,0,U,69464,999,581,-.43764111E-1,-.2374846E-1,0
STARLINK-37535,2026-127Y,2026-07-17T22:00:01.999584,15.59412786,.00007216,53.1596,109.2638,112.4089,257.7545,0,U,69465,999,603,-.29705929E-1,-.2126973E-1,0
STARLINK-37583,2026-127Z,2026-07-17T22:00:01.999584,15.62448851,.00010153,53.1596,108.8860,93.6269,100.3867,0,U,69466,999,604,-.16024387E-1,-.1292895E-1,0
STARLINK-37546,2026-127AA,2026-07-17T22:00:01.999584,15.57559313,.00010167,53.1593,109.2523,115.2087,259.1369,0,U,69467,999,605,-.99257779E-2,-.684736E-2,0
STARLINK-37532,2026-127AB,2026-07-17T22:00:01.999584,15.50049101,.00013962,53.1593,109.1352,124.8279,305.0375,0,U,69468,999,599,-.21153536E-1,-.1093104E-1,0
STARLINK-37708,2026-127AC,2026-07-17T22:00:01.999584,15.53916108,.0000924,53.1594,109.3324,107.0291,227.8454,0,U,69469,999,604,-.38232371E-1,-.2214903E-1,0
STARLINK-37686,2026-127AD,2026-07-17T22:00:01.999584,15.52924344,.00012171,53.1591,109.3191,122.0721,217.6908,0,U,69470,999,593,-.36759929E-1,-.207146E-1,0
STARLINK-37451,2026-127AE,2026-07-17T22:00:01.999584,15.49295251,.00013648,53.1598,108.5639,105.9976,242.7846,0,U,69471,999,605,-.75243412E-4,-.4629E-4,0
DTC TEST OBJECT A,2026-128A,2026-07-13T09:27:12.812256,15.53518270,.00116266,54.9999,184.1420,6.4285,353.6897,0,U,69472,999,530,.98124681E-4,.5883E-4,0
DTC TEST OBJECT B,2026-128B,2026-06-27T09:02:13.824960,15.56860342,.0009934,55.0021,257.9040,325.3113,34.7274,0,U,69473,999,280,.3356545E-3,.24134E-3,0
TJS-25,2026-129A,2026-07-17T20:41:12.439392,1.00270395,.00028114,5.9494,330.3562,280.6095,115.1941,0,U,69474,999,37,0,-.377E-5,0
STARLINK-37816,2026-131A,2026-07-17T11:40:48.089280,15.49206034,.000134,97.2838,220.1177,91.8280,268.3125,0,U,69478,999,692,.35633E-3,.19348E-3,0
STARLINK-37878,2026-131B,2026-07-17T00:17:42.110880,15.49206073,.00006505,97.2844,219.6912,123.1257,237.0057,0,U,69479,999,685,.45821658E-3,.24924E-3,0
STARLINK-37817,2026-131C,2026-07-17T22:00:01.999584,15.43485225,.00018683,97.2848,220.6248,79.9502,312.7079,0,U,69480,999,601,-.52060145E-1,-.2069414E-1,0
STARLINK-37727,2026-131D,2026-07-17T00:48:34.735104,15.49209433,.00020279,97.2835,219.6620,100.8179,259.3301,0,U,69481,999,685,.49078419E-3,.26713E-3,0
STARLINK-37814,2026-131E,2026-07-17T17:12:18.311904,15.48307954,.00027312,97.2815,220.4178,140.8222,219.3227,0,U,69482,999,696,-.11157058E-1,-.549365E-2,0
